[{"OBJECT_NAME":"SES-2","OBJECT_ID":"2011-049A","EPOCH":"2026-03-28T12:39:40.027968","MEAN_MOTION":1.00271903,"ECCENTRICITY":0.00028448,"INCLINATION":0.0499,"RA_OF_ASC_NODE":66.1934,"ARG_OF_PERICENTER":296.2806,"MEAN_ANOMALY":286.3762,"EPHEMERIS_TYPE":0,"CLASSIFICATION_TYPE":"U","NORAD_CAT_ID":37809,"ELEMENT_SET_NO":999,"REV_AT_EPOCH":5315,"BSTAR":0,"MEAN_MOTION_DOT":-2.15e-6,"MEAN_MOTION_DDOT":0},{"OBJECT_NAME":"QUETZSAT 1","OBJECT_ID":"2011-054A","EPOCH":"2026-03-28T12:42:24.765120","MEAN_MOTION":1.00272405,"ECCENTRICITY":0.00027577,"INCLINATION":0.0381,"RA_OF_ASC_NODE":48.3277,"ARG_OF_PERICENTER":324.9092,"MEAN_ANOMALY":286.2959,"EPHEMERIS_TYPE":0,"CLASSIFICATION_TYPE":"U","NORAD_CAT_ID":37826,"ELEMENT_SET_NO":999,"REV_AT_EPOCH":4906,"BSTAR":0,"MEAN_MOTION_DOT":-2.61e-6,"MEAN_MOTION_DDOT":0},{"OBJECT_NAME":"SES-4","OBJECT_ID":"2012-007A","EPOCH":"2026-03-28T07:50:07.855584","MEAN_MOTION":1.00271438,"ECCENTRICITY":0.0002232,"INCLINATION":0.0329,"RA_OF_ASC_NODE":63.3796,"ARG_OF_PERICENTER":310.2546,"MEAN_ANOMALY":267.6426,"EPHEMERIS_TYPE":0,"CLASSIFICATION_TYPE":"U","NORAD_CAT_ID":38087,"ELEMENT_SET_NO":999,"REV_AT_EPOCH":5141,"BSTAR":0,"MEAN_MOTION_DOT":-1.88e-6,"MEAN_MOTION_DDOT":0},{"OBJECT_NAME":"SES-5","OBJECT_ID":"2012-036A","EPOCH":"2026-03-28T08:41:38.903712","MEAN_MOTION":1.00267091,"ECCENTRICITY":0.00020518,"INCLINATION":0.0634,"RA_OF_ASC_NODE":304.1475,"ARG_OF_PERICENTER":49.3865,"MEAN_ANOMALY":327.6149,"EPHEMERIS_TYPE":0,"CLASSIFICATION_TYPE":"U","NORAD_CAT_ID":38652,"ELEMENT_SET_NO":999,"REV_AT_EPOCH":4364,"BSTAR":0,"MEAN_MOTION_DOT":1.3e-7,"MEAN_MOTION_DDOT":0},{"OBJECT_NAME":"ASTRA 2F","OBJECT_ID":"2012-051A","EPOCH":"2026-03-28T13:12:29.381184","MEAN_MOTION":1.00272113,"ECCENTRICITY":0.0001923,"INCLINATION":0.0576,"RA_OF_ASC_NODE":252.6175,"ARG_OF_PERICENTER":30.8109,"MEAN_ANOMALY":128.8235,"EPHEMERIS_TYPE":0,"CLASSIFICATION_TYPE":"U","NORAD_CAT_ID":38778,"ELEMENT_SET_NO":999,"REV_AT_EPOCH":4032,"BSTAR":0,"MEAN_MOTION_DOT":1.3e-6,"MEAN_MOTION_DDOT":0},{"OBJECT_NAME":"SES-6","OBJECT_ID":"2013-026A","EPOCH":"2026-03-28T11:10:11.635680","MEAN_MOTION":1.00270591,"ECCENTRICITY":0.0002069,"INCLINATION":0.037,"RA_OF_ASC_NODE":306.6884,"ARG_OF_PERICENTER":78.4169,"MEAN_ANOMALY":287.8074,"EPHEMERIS_TYPE":0,"CLASSIFICATION_TYPE":"U","NORAD_CAT_ID":39172,"ELEMENT_SET_NO":999,"REV_AT_EPOCH":4691,"BSTAR":0,"MEAN_MOTION_DOT":-2.81e-6,"MEAN_MOTION_DDOT":0},{"OBJECT_NAME":"O3B FM5","OBJECT_ID":"2013-031A","EPOCH":"2026-03-28T02:01:35.391360","MEAN_MOTION":5.00116427,"ECCENTRICITY":0.0003249,"INCLINATION":0.1013,"RA_OF_ASC_NODE":7.8394,"ARG_OF_PERICENTER":349.0661,"MEAN_ANOMALY":3.0879,"EPHEMERIS_TYPE":0,"CLASSIFICATION_TYPE":"U","NORAD_CAT_ID":39188,"ELEMENT_SET_NO":999,"REV_AT_EPOCH":23298,"BSTAR":0,"MEAN_MOTION_DOT":-2.9e-7,"MEAN_MOTION_DDOT":0},{"OBJECT_NAME":"O3B FM4","OBJECT_ID":"2013-031B","EPOCH":"2026-03-27T09:41:53.263680","MEAN_MOTION":5.00115128,"ECCENTRICITY":0.0005069,"INCLINATION":0.0535,"RA_OF_ASC_NODE":345.5776,"ARG_OF_PERICENTER":27.4764,"MEAN_ANOMALY":346.9547,"EPHEMERIS_TYPE":0,"CLASSIFICATION_TYPE":"U","NORAD_CAT_ID":39189,"ELEMENT_SET_NO":999,"REV_AT_EPOCH":23295,"BSTAR":0,"MEAN_MOTION_DOT":-2.8e-7,"MEAN_MOTION_DDOT":0},{"OBJECT_NAME":"O3B FM2","OBJECT_ID":"2013-031C","EPOCH":"2026-03-28T11:15:37.759392","MEAN_MOTION":5.00115944,"ECCENTRICITY":0.0002806,"INCLINATION":0.0527,"RA_OF_ASC_NODE":338.9684,"ARG_OF_PERICENTER":25.6513,"MEAN_ANOMALY":355.3782,"EPHEMERIS_TYPE":0,"CLASSIFICATION_TYPE":"U","NORAD_CAT_ID":39190,"ELEMENT_SET_NO":999,"REV_AT_EPOCH":23306,"BSTAR":0,"MEAN_MOTION_DOT":-2.9e-7,"MEAN_MOTION_DDOT":0},{"OBJECT_NAME":"O3B PFM","OBJECT_ID":"2013-031D","EPOCH":"2026-03-21T21:17:09.784320","MEAN_MOTION":5.00116261,"ECCENTRICITY":0.00053256,"INCLINATION":0.0686,"RA_OF_ASC_NODE":5.4871,"ARG_OF_PERICENTER":11.7167,"MEAN_ANOMALY":342.8128,"EPHEMERIS_TYPE":0,"CLASSIFICATION_TYPE":"U","NORAD_CAT_ID":39191,"ELEMENT_SET_NO":999,"REV_AT_EPOCH":23229,"BSTAR":0,"MEAN_MOTION_DOT":-1.5e-7,"MEAN_MOTION_DDOT":0},{"OBJECT_NAME":"ASTRA 2E","OBJECT_ID":"2013-056A","EPOCH":"2026-03-28T14:49:08.126688","MEAN_MOTION":1.00268742,"ECCENTRICITY":0.00023904,"INCLINATION":0.0742,"RA_OF_ASC_NODE":32.3707,"ARG_OF_PERICENTER":330.0924,"MEAN_ANOMALY":74.3603,"EPHEMERIS_TYPE":0,"CLASSIFICATION_TYPE":"U","NORAD_CAT_ID":39285,"ELEMENT_SET_NO":999,"REV_AT_EPOCH":4560,"BSTAR":0,"MEAN_MOTION_DOT":1.31e-6,"MEAN_MOTION_DDOT":0},{"OBJECT_NAME":"SES-8","OBJECT_ID":"2013-071A","EPOCH":"2026-03-28T14:45:02.564064","MEAN_MOTION":1.0027174,"ECCENTRICITY":0.00020007,"INCLINATION":0.0227,"RA_OF_ASC_NODE":253.1515,"ARG_OF_PERICENTER":135.442,"MEAN_ANOMALY":113.6835,"EPHEMERIS_TYPE":0,"CLASSIFICATION_TYPE":"U","NORAD_CAT_ID":39460,"ELEMENT_SET_NO":999,"REV_AT_EPOCH":4363,"BSTAR":0,"MEAN_MOTION_DOT":-2.89e-6,"MEAN_MOTION_DDOT":0},{"OBJECT_NAME":"ASTRA 5B","OBJECT_ID":"2014-011B","EPOCH":"2026-03-28T13:11:07.013472","MEAN_MOTION":1.00269015,"ECCENTRICITY":0.00036551,"INCLINATION":0.0883,"RA_OF_ASC_NODE":299.4413,"ARG_OF_PERICENTER":41.2408,"MEAN_ANOMALY":66.557,"EPHEMERIS_TYPE":0,"CLASSIFICATION_TYPE":"U","NORAD_CAT_ID":39617,"ELEMENT_SET_NO":999,"REV_AT_EPOCH":4385,"BSTAR":0,"MEAN_MOTION_DOT":1.17e-6,"MEAN_MOTION_DDOT":0},{"OBJECT_NAME":"O3B FM3","OBJECT_ID":"2014-038A","EPOCH":"2026-03-27T08:24:51.210144","MEAN_MOTION":5.00115572,"ECCENTRICITY":8.66e-5,"INCLINATION":0.0529,"RA_OF_ASC_NODE":354.5796,"ARG_OF_PERICENTER":77.5671,"MEAN_ANOMALY":287.8583,"EPHEMERIS_TYPE":0,"CLASSIFICATION_TYPE":"U","NORAD_CAT_ID":40079,"ELEMENT_SET_NO":999,"REV_AT_EPOCH":20895,"BSTAR":0,"MEAN_MOTION_DOT":-2.8e-7,"MEAN_MOTION_DDOT":0},{"OBJECT_NAME":"O3B FM7","OBJECT_ID":"2014-038B","EPOCH":"2026-03-28T11:54:17.068032","MEAN_MOTION":5.00115569,"ECCENTRICITY":0.00042727,"INCLINATION":0.0574,"RA_OF_ASC_NODE":348.2906,"ARG_OF_PERICENTER":6.567,"MEAN_ANOMALY":5.1333,"EPHEMERIS_TYPE":0,"CLASSIFICATION_TYPE":"U","NORAD_CAT_ID":40080,"ELEMENT_SET_NO":999,"REV_AT_EPOCH":21384,"BSTAR":0,"MEAN_MOTION_DOT":-2.9e-7,"MEAN_MOTION_DDOT":0},{"OBJECT_NAME":"O3B FM6","OBJECT_ID":"2014-038C","EPOCH":"2026-03-28T12:33:09.837792","MEAN_MOTION":5.00115666,"ECCENTRICITY":0.00026403,"INCLINATION":0.0541,"RA_OF_ASC_NODE":351.7652,"ARG_OF_PERICENTER":13.3857,"MEAN_ANOMALY":354.8471,"EPHEMERIS_TYPE":0,"CLASSIFICATION_TYPE":"U","NORAD_CAT_ID":40081,"ELEMENT_SET_NO":999,"REV_AT_EPOCH":21378,"BSTAR":0,"MEAN_MOTION_DOT":-2.9e-7,"MEAN_MOTION_DDOT":0},{"OBJECT_NAME":"O3B FM8","OBJECT_ID":"2014-038D","EPOCH":"2026-03-28T09:02:04.759872","MEAN_MOTION":5.00115959,"ECCENTRICITY":0.00026783,"INCLINATION":0.0547,"RA_OF_ASC_NODE":351.0058,"ARG_OF_PERICENTER":17.8266,"MEAN_ANOMALY":351.1676,"EPHEMERIS_TYPE":0,"CLASSIFICATION_TYPE":"U","NORAD_CAT_ID":40082,"ELEMENT_SET_NO":999,"REV_AT_EPOCH":21390,"BSTAR":0,"MEAN_MOTION_DOT":-2.9e-7,"MEAN_MOTION_DDOT":0}]
